[{"OBJECT_NAME":"NUSAT-44 (MARIA MITCHELL)","OBJECT_ID":"2024-043AA","EPOCH":"2026-03-09T22:12:18.524160","MEAN_MOTION":15.29764305,"ECCENTRICITY":0.0007331,"INCLINATION":97.5299,"RA_OF_ASC_NODE":207.7691,"ARG_OF_PERICENTER":214.9017,"MEAN_ANOMALY":145.1743,"EPHEMERIS_TYPE":0,"CLASSIFICATION_TYPE":"U","NORAD_CAT_ID":59122,"ELEMENT_SET_NO":999,"REV_AT_EPOCH":11209,"BSTAR":0.00061063193,"MEAN_MOTION_DOT":0.00017562,"MEAN_MOTION_DDOT":0},{"OBJECT_NAME":"STARLINK-31305","OBJECT_ID":"2024-049B","EPOCH":"2026-03-09T06:23:06.919584","MEAN_MOTION":15.27570268,"ECCENTRICITY":0.00012979,"INCLINATION":43.0033,"RA_OF_ASC_NODE":145.7122,"ARG_OF_PERICENTER":267.3555,"MEAN_ANOMALY":92.7148,"EPHEMERIS_TYPE":0,"CLASSIFICATION_TYPE":"U","NORAD_CAT_ID":59232,"ELEMENT_SET_NO":999,"REV_AT_EPOCH":11232,"BSTAR":-0.00011838441,"MEAN_MOTION_DOT":-3.517e-5,"MEAN_MOTION_DDOT":0}]
